{
  "type": "FeatureCollection",
  "name": "bali-mainland",
  "features": [
    {
      "type": "Feature",
      "properties": {
        "name": "Bali mainland rally footprint",
        "note": "Polygon kasar mengikuti garis pantai Bali utama. Lebarkan kalau event menyertakan Nusa Penida/Lembongan/Menjangan."
      },
      "geometry": {
        "type": "Polygon",
        "coordinates": [
          [
            [114.434, -8.085],
            [114.581, -8.146],
            [114.629, -8.272],
            [114.665, -8.418],
            [114.681, -8.541],
            [114.749, -8.640],
            [114.881, -8.733],
            [115.029, -8.798],
            [115.176, -8.835],
            [115.325, -8.852],
            [115.476, -8.823],
            [115.601, -8.794],
            [115.713, -8.737],
            [115.713, -8.640],
            [115.681, -8.512],
            [115.628, -8.401],
            [115.546, -8.298],
            [115.435, -8.207],
            [115.292, -8.137],
            [115.137, -8.107],
            [114.978, -8.094],
            [114.823, -8.087],
            [114.668, -8.084],
            [114.519, -8.082],
            [114.434, -8.085]
          ]
        ]
      }
    }
  ]
}
